CCSDS_OMM_VERS = 2.0
CREATION_DATE  = 
ORIGINATOR     = 

OBJECT_NAME    = SL-16 R/B
OBJECT_ID      = 1998-043G
CENTER_NAME    = EARTH
REF_FRAME      = TEME
TIME_SYSTEM    = UTC
MEAN_ELEMENT_THEORY = SGP/SGP4

EPOCH          = 2026-01-09T07:16:06.888000
MEAN_MOTION    = 14.26033511
ECCENTRICITY   = .00097352
INCLINATION    = 98.8164
RA_OF_ASC_NODE = 322.2806
ARG_OF_PERICENTER = 180.7383
MEAN_ANOMALY   = 179.3783

EPHEMERIS_TYPE = 0
CLASSIFICATION_TYPE = U
NORAD_CAT_ID   = 25400
ELEMENT_SET_NO = 999
REV_AT_EPOCH   = 43052
BSTAR          = .5791123E-4
MEAN_MOTION_DOT = .93E-6
MEAN_MOTION_DDOT = 0

CCSDS_OMM_VERS = 2.0
CREATION_DATE  = 
ORIGINATOR     = 

OBJECT_NAME    = SL-16 R/B
OBJECT_ID      = 1998-045B
CENTER_NAME    = EARTH
REF_FRAME      = TEME
TIME_SYSTEM    = UTC
MEAN_ELEMENT_THEORY = SGP/SGP4

EPOCH          = 2026-01-09T05:47:21.897888
MEAN_MOTION    = 14.16180522
ECCENTRICITY   = .00053622
INCLINATION    = 71.0123
RA_OF_ASC_NODE = 306.5917
ARG_OF_PERICENTER = 128.3560
MEAN_ANOMALY   = 231.8046

EPHEMERIS_TYPE = 0
CLASSIFICATION_TYPE = U
NORAD_CAT_ID   = 25407
ELEMENT_SET_NO = 999
REV_AT_EPOCH   = 41868
BSTAR          = -.60424674E-4
MEAN_MOTION_DOT = -.167E-5
MEAN_MOTION_DDOT = 0

CCSDS_OMM_VERS = 2.0
CREATION_DATE  = 
ORIGINATOR     = 

OBJECT_NAME    = ISS (ZARYA)
OBJECT_ID      = 1998-067A
CENTER_NAME    = EARTH
REF_FRAME      = TEME
TIME_SYSTEM    = UTC
MEAN_ELEMENT_THEORY = SGP/SGP4

EPOCH          = 2026-01-09T05:01:51.963744
MEAN_MOTION    = 15.49190279
ECCENTRICITY   = .00076773
INCLINATION    = 51.6334
RA_OF_ASC_NODE = 6.4737
ARG_OF_PERICENTER = 357.8776
MEAN_ANOMALY   = 2.2179

EPHEMERIS_TYPE = 0
CLASSIFICATION_TYPE = U
NORAD_CAT_ID   = 25544
ELEMENT_SET_NO = 999
REV_AT_EPOCH   = 54711
BSTAR          = .20045458E-3
MEAN_MOTION_DOT = .10689E-3
MEAN_MOTION_DDOT = 0

CCSDS_OMM_VERS = 2.0
CREATION_DATE  = 
ORIGINATOR     = 

OBJECT_NAME    = CZ-4B R/B
OBJECT_ID      = 1999-025C
CENTER_NAME    = EARTH
REF_FRAME      = TEME
TIME_SYSTEM    = UTC
MEAN_ELEMENT_THEORY = SGP/SGP4

EPOCH          = 2026-01-09T02:55:45.062976
MEAN_MOTION    = 14.18251224
ECCENTRICITY   = .00375925
INCLINATION    = 98.6730
RA_OF_ASC_NODE = 54.7844
ARG_OF_PERICENTER = 154.9064
MEAN_ANOMALY   = 264.8743

EPHEMERIS_TYPE = 0
CLASSIFICATION_TYPE = U
NORAD_CAT_ID   = 25732
ELEMENT_SET_NO = 999
REV_AT_EPOCH   = 37972
BSTAR          = .39528685E-4
MEAN_MOTION_DOT = .39E-6
MEAN_MOTION_DDOT = 0

CCSDS_OMM_VERS = 2.0
CREATION_DATE  = 
ORIGINATOR     = 

OBJECT_NAME    = OKEAN-O
OBJECT_ID      = 1999-039A
CENTER_NAME    = EARTH
REF_FRAME      = TEME
TIME_SYSTEM    = UTC
MEAN_ELEMENT_THEORY = SGP/SGP4

EPOCH          = 2026-01-09T04:01:21.665568
MEAN_MOTION    = 14.80217961
ECCENTRICITY   = .00015435
INCLINATION    = 97.9560
RA_OF_ASC_NODE = 69.6271
ARG_OF_PERICENTER = 111.5507
MEAN_ANOMALY   = 248.5869

EPHEMERIS_TYPE = 0
CLASSIFICATION_TYPE = U
NORAD_CAT_ID   = 25860
ELEMENT_SET_NO = 999
REV_AT_EPOCH   = 42558
BSTAR          = .10335768E-3
MEAN_MOTION_DOT = .734E-5
MEAN_MOTION_DDOT = 0

CCSDS_OMM_VERS = 2.0
CREATION_DATE  = 
ORIGINATOR     = 

OBJECT_NAME    = SL-16 R/B
OBJECT_ID      = 1999-039B
CENTER_NAME    = EARTH
REF_FRAME      = TEME
TIME_SYSTEM    = UTC
MEAN_ELEMENT_THEORY = SGP/SGP4

EPOCH          = 2026-01-09T03:16:26.541120
MEAN_MOTION    = 14.81634105
ECCENTRICITY   = .00161617
INCLINATION    = 98.0085
RA_OF_ASC_NODE = 68.2843
ARG_OF_PERICENTER = 90.8685
MEAN_ANOMALY   = 269.4379

EPHEMERIS_TYPE = 0
CLASSIFICATION_TYPE = U
NORAD_CAT_ID   = 25861
ELEMENT_SET_NO = 999
REV_AT_EPOCH   = 42804
BSTAR          = .80389732E-4
MEAN_MOTION_DOT = .579E-5
MEAN_MOTION_DDOT = 0

CCSDS_OMM_VERS = 2.0
CREATION_DATE  = 
ORIGINATOR     = 

OBJECT_NAME    = DELTA 2 R/B
OBJECT_ID      = 1999-041E
CENTER_NAME    = EARTH
REF_FRAME      = TEME
TIME_SYSTEM    = UTC
MEAN_ELEMENT_THEORY = SGP/SGP4

EPOCH          = 2026-01-09T04:28:10.692768
MEAN_MOTION    = 14.11517197
ECCENTRICITY   = .05038759
INCLINATION    = 51.7600
RA_OF_ASC_NODE = 178.8747
ARG_OF_PERICENTER = 172.6636
MEAN_ANOMALY   = 188.2036

EPHEMERIS_TYPE = 0
CLASSIFICATION_TYPE = U
NORAD_CAT_ID   = 25876
ELEMENT_SET_NO = 999
REV_AT_EPOCH   = 35462
BSTAR          = .43155614E-3
MEAN_MOTION_DOT = .2448E-4
MEAN_MOTION_DDOT = 0

CCSDS_OMM_VERS = 2.0
CREATION_DATE  = 
ORIGINATOR     = 

OBJECT_NAME    = HELIOS 1B
OBJECT_ID      = 1999-064A
CENTER_NAME    = EARTH
REF_FRAME      = TEME
TIME_SYSTEM    = UTC
MEAN_ELEMENT_THEORY = SGP/SGP4

EPOCH          = 2026-01-09T06:02:18.598560
MEAN_MOTION    = 14.87420052
ECCENTRICITY   = .0000336
INCLINATION    = 98.1744
RA_OF_ASC_NODE = 269.7346
ARG_OF_PERICENTER = 103.0636
MEAN_ANOMALY   = 257.0617

EPHEMERIS_TYPE = 0
CLASSIFICATION_TYPE = U
NORAD_CAT_ID   = 25977
ELEMENT_SET_NO = 999
REV_AT_EPOCH   = 67642
BSTAR          = .26250052E-3
MEAN_MOTION_DOT = .2317E-4
MEAN_MOTION_DDOT = 0

CCSDS_OMM_VERS = 2.0
CREATION_DATE  = 
ORIGINATOR     = 

OBJECT_NAME    = TERRA
OBJECT_ID      = 1999-068A
CENTER_NAME    = EARTH
REF_FRAME      = TEME
TIME_SYSTEM    = UTC
MEAN_ELEMENT_THEORY = SGP/SGP4

EPOCH          = 2026-01-09T06:26:13.318944
MEAN_MOTION    = 14.60939433
ECCENTRICITY   = .00027377
INCLINATION    = 97.9709
RA_OF_ASC_NODE = 64.9371
ARG_OF_PERICENTER = 37.4475
MEAN_ANOMALY   = 27.4213

EPHEMERIS_TYPE = 0
CLASSIFICATION_TYPE = U
NORAD_CAT_ID   = 25994
ELEMENT_SET_NO = 999
REV_AT_EPOCH   = 38640
BSTAR          = .11915499E-3
MEAN_MOTION_DOT = .539E-5
MEAN_MOTION_DDOT = 0

CCSDS_OMM_VERS = 2.0
CREATION_DATE  = 
ORIGINATOR     = 

OBJECT_NAME    = SL-16 R/B
OBJECT_ID      = 2000-006B
CENTER_NAME    = EARTH
REF_FRAME      = TEME
TIME_SYSTEM    = UTC
MEAN_ELEMENT_THEORY = SGP/SGP4

EPOCH          = 2026-01-09T00:42:03.826080
MEAN_MOTION    = 14.15815720
ECCENTRICITY   = .0018991
INCLINATION    = 71.0012
RA_OF_ASC_NODE = 223.2794
ARG_OF_PERICENTER = 272.1630
MEAN_ANOMALY   = 87.7319

EPHEMERIS_TYPE = 0
CLASSIFICATION_TYPE = U
NORAD_CAT_ID   = 26070
ELEMENT_SET_NO = 999
REV_AT_EPOCH   = 34011
BSTAR          = -.39525123E-4
MEAN_MOTION_DOT = -.126E-5
MEAN_MOTION_DDOT = 0

CCSDS_OMM_VERS = 2.0
CREATION_DATE  = 
ORIGINATOR     = 

OBJECT_NAME    = TITAN 4B R/B
OBJECT_ID      = 2000-047B
CENTER_NAME    = EARTH
REF_FRAME      = TEME
TIME_SYSTEM    = UTC
MEAN_ELEMENT_THEORY = SGP/SGP4

EPOCH          = 2026-01-09T06:03:25.797024
MEAN_MOTION    = 15.09014420
ECCENTRICITY   = .00372498
INCLINATION    = 67.9877
RA_OF_ASC_NODE = 207.5736
ARG_OF_PERICENTER = 110.3992
MEAN_ANOMALY   = 250.1164

EPHEMERIS_TYPE = 0
CLASSIFICATION_TYPE = U
NORAD_CAT_ID   = 26474
ELEMENT_SET_NO = 999
REV_AT_EPOCH   = 38394
BSTAR          = .26812656E-3
MEAN_MOTION_DOT = .4185E-4
MEAN_MOTION_DDOT = 0

CCSDS_OMM_VERS = 2.0
CREATION_DATE  = 
ORIGINATOR     = 

OBJECT_NAME    = ENVISAT
OBJECT_ID      = 2002-009A
CENTER_NAME    = EARTH
REF_FRAME      = TEME
TIME_SYSTEM    = UTC
MEAN_ELEMENT_THEORY = SGP/SGP4

EPOCH          = 2026-01-05T21:29:39.358752
MEAN_MOTION    = 14.39010190
ECCENTRICITY   = .00010782
INCLINATION    = 98.3632
RA_OF_ASC_NODE = 321.0279
ARG_OF_PERICENTER = 90.4272
MEAN_ANOMALY   = 337.3404

EPHEMERIS_TYPE = 0
CLASSIFICATION_TYPE = U
NORAD_CAT_ID   = 27386
ELEMENT_SET_NO = 999
REV_AT_EPOCH   = 25014
BSTAR          = .76294626E-4
MEAN_MOTION_DOT = .193E-5
MEAN_MOTION_DDOT = 0

