SL-16 R/B               
1 25400U 98043G   26009.30285750  .00000093  00000+0  57911-4 0  9990
2 25400  98.8164 322.2806 0009735 180.7383 179.3783 14.26033511430524
SL-16 R/B               
1 25407U 98045B   26009.24122567 -.00000167  00000+0 -60425-4 0  9996
2 25407  71.0123 306.5917 0005362 128.3560 231.8046 14.16180522418687
ISS (ZARYA)             
1 25544U 98067A   26009.20962921  .00010689  00000+0  20045-3 0  9995
2 25544  51.6334   6.4737 0007677 357.8776   2.2179 15.49190279547117
CZ-4B R/B               
1 25732U 99025C   26009.12204934  .00000039  00000+0  39529-4 0  9999
2 25732  98.6730  54.7844 0037592 154.9064 264.8743 14.18251224379723
OKEAN-O                 
1 25860U 99039A   26009.16761187  .00000734  00000+0  10336-3 0  9994
2 25860  97.9560  69.6271 0001543 111.5507 248.5869 14.80217961425588
SL-16 R/B               
1 25861U 99039B   26009.13641830  .00000579  00000+0  80390-4 0  9999
2 25861  98.0085  68.2843 0016161  90.8685 269.4379 14.81634105428047
DELTA 2 R/B             
1 25876U 99041E   26009.18623487  .00002448  00000+0  43156-3 0  9996
2 25876  51.7600 178.8747 0503875 172.6636 188.2036 14.11517197354625
HELIOS 1B               
1 25977U 99064A   26009.25160415  .00002317  00000+0  26250-3 0  9999
2 25977  98.1744 269.7346 0000336 103.0636 257.0617 14.87420052676429
TERRA                   
1 25994U 99068A   26009.26820971  .00000539  00000+0  11915-3 0  9999
2 25994  97.9709  64.9371 0002737  37.4475  27.4213 14.60939433386403
SL-16 R/B               
1 26070U 00006B   26009.02921095 -.00000126  00000+0 -39525-4 0  9994
2 26070  71.0012 223.2794 0018991 272.1630  87.7319 14.15815720340114
TITAN 4B R/B            
1 26474U 00047B   26009.25238191  .00004185  00000+0  26813-3 0  9992
2 26474  67.9877 207.5736 0037249 110.3992 250.1164 15.09014420383941
ENVISAT                 
1 27386U 02009A   26005.89559443  .00000193  00000+0  76295-4 0  9992
2 27386  98.3632 321.0279 0001078  90.4272 337.3404 14.39010190250147
